MEAN_MOTION;ECCENTRICITY;INCLINATION;RA_OF_ASC_NODE;ARG_OF_PERICENTER;MEAN_ANOMALY;BSTAR;MEAN_MOTION_DOT;MEAN_MOTION_DDOT;TYPE
1.00259783;0.0005281;15.084;11.4832;240.9503;316.1508;0;-7.2E-7;0;Weather
1.00259783;0.0005281;15.084;11.4832;240.9503;316.1508;0;-7.1E-7;0;Weather
1.00259874;0.0005279;15.0841;11.4737;240.8139;301.6679;0;-7.4E-7;0;Weather
1.00259973;0.0005279;15.0843;11.4637;240.7131;305.5573;0;-7.6E-7;0;Weather
1.00260056;0.0005282;15.0845;11.4538;240.659;307.3407;0;-7.8E-7;0;Weather
1.00260056;0.0005282;15.0845;11.4538;240.659;307.3407;0;-7.8E-7;0;Weather
1.00260232;0.0005296;15.0848;11.4338;240.7186;319.6671;0;-8.1E-7;0;Weather
1.00260232;0.0005296;15.0848;11.4338;240.7186;319.6671;0;-8.0E-7;0;Weather
1.00260315;0.0005292;15.085;11.4238;240.7897;324.3092;0;-8.1E-7;0;Weather
1.00260418;0.0005295;15.0851;11.4121;241.0157;34.1094;0;-8.1E-7;0;Weather
1.00260496;0.0005289;15.0852;11.404;241.1218;331.9869;0;-8.1E-7;0;Weather
1.00260512;0.0005292;15.0853;11.4021;241.1967;42.0306;0;-8.0E-7;0;Weather
1.00260658;0.0005269;15.0856;11.3842;241.5416;339.1801;0;-7.8E-7;0;Weather
1.00260674;0.0005268;15.0856;11.3823;241.5866;50.2974;0;-7.7E-7;0;Weather
1.0026073;0.0005254;15.0857;11.3755;241.7174;302.5046;0;-7.6E-7;0;Weather
1.00260746;0.0005253;15.0858;11.3737;241.7273;7.6577;0;-7.6E-7;0;Weather
1.00260813;0.0005235;15.0859;11.3657;241.8818;305.0846;0;-7.4E-7;0;Weather
1.00260838;0.0005233;15.0859;11.3631;241.9121;38.8531;0;-7.4E-7;0;Weather
1.00260886;0.0005222;15.086;11.3575;242.0658;247.8183;0;-7.2E-7;0;Weather
1.0026091;0.0005212;15.086;11.3551;242.0512;335.9242;0;-7.2E-7;0;Weather
1.00261005;0.0005182;15.0862;11.3453;242.1734;340.4759;0;-7.0E-7;0;Weather
1.00261086;0.0005159;15.0863;11.3371;242.2845;283.0515;0;-6.8E-7;0;Weather
1.00261194;0.0005121;15.0865;11.3259;242.3354;339.0521;0;-6.5E-7;0;Weather
1.00261284;0.0005088;15.0866;11.3175;242.3489;290.6579;0;-6.3E-7;0;Weather
1.0026131;0.0005079;15.0866;11.3151;242.2883;19.2623;0;-6.3E-7;0;Weather
1.00261428;0.0005046;15.0868;11.3046;242.2594;48.7652;0;-6.1E-7;0;Weather
1.00261524;0.0005017;15.0869;11.2969;242.2421;335.3129;0;-6.0E-7;0;Weather
1.00261646;0.0004979;15.087;11.2864;242.0985;9.334;0;-5.8E-7;0;Weather
1.00261754;0.0004947;15.0871;11.2771;241.958;352.8229;0;-5.7E-7;0;Weather
1.00261972;0.00049;15.0874;11.2592;241.5458;297.361;0;-5.6E-7;0;Weather
1.00262081;0.0004886;15.0875;11.2498;241.358;287.017;0;-5.6E-7;0;Weather
1.00262194;0.0004869;15.0876;11.24;241.0735;290.0716;0;-5.7E-7;0;Weather
1.00262317;0.0004856;15.0878;11.2302;240.759;293.1567;0;-5.8E-7;0;Weather
1.00262422;0.0004842;15.0879;11.2204;240.403;296.2732;0;-6.0E-7;0;Weather
1.00262551;0.000484;15.088;11.2105;240.1288;299.3187;0;-6.2E-7;0;Weather
1.00262653;0.0004831;15.0882;11.2009;239.7992;293.3232;0;-6.5E-7;0;Weather
1.00262786;0.0004832;15.0883;11.1909;239.5907;305.3828;0;-6.7E-7;0;Weather
1.00262901;0.0004825;15.0884;11.1813;239.3013;300.5029;0;-6.9E-7;0;Weather
1.00263114;0.0004825;15.0887;11.1618;239.1315;300.5894;0;-7.1E-7;0;Weather
1.00263155;0.0004826;15.0887;11.1578;239.2258;90.8941;0;-7.2E-7;0;Weather
1.00263321;0.000481;15.0889;11.1424;239.0764;301.3124;0;-7.2E-7;0;Weather
1.00263374;0.0004814;15.089;11.1377;239.2192;114.3815;0;-7.1E-7;0;Weather
1.00263421;0.0004812;15.089;11.1328;239.2296;296.5043;0;-7.1E-7;0;Weather
1.00263556;0.0004813;15.0891;11.1212;239.4446;10.5012;0;-7.0E-7;0;Weather
1.00263633;0.0004801;15.0892;11.1134;239.5431;301.7292;0;-6.8E-7;0;Weather
1.00263661;0.00048;15.0893;11.1114;239.5298;16.2513;0;-6.8E-7;0;Weather
1.00263741;0.0004783;15.0893;11.1038;239.5949;299.127;0;-6.7E-7;0;Weather
1.00263846;0.0004763;15.0895;11.0939;239.6981;307.1216;0;-6.5E-7;0;Weather
1.00263956;0.0004741;15.0896;11.0842;239.7836;309.8077;0;-6.3E-7;0;Weather
1.0026407;0.0004719;15.0897;11.0745;239.8641;312.4996;0;-6.0E-7;0;Weather
1.00264195;0.000469;15.0898;11.0635;239.8076;3.3154;0;-5.8E-7;0;Weather
1.00264313;0.0004662;15.0899;11.0541;239.7568;357.0262;0;-5.6E-7;0;Weather
1.00264313;0.0004662;15.0899;11.0541;239.7568;357.0262;0;-5.6E-7;0;Weather
1.00264313;0.0004662;15.0899;11.0541;239.7568;357.0262;0;-5.6E-7;0;Weather
1.00264666;0.0004582;15.0902;11.0267;239.351;300.952;0;-5.1E-7;0;Weather
1.00264794;0.0004543;15.0903;11.0171;238.7068;304.3842;0;-5.0E-7;0;Weather
1.00264921;0.0004508;15.0903;11.0076;237.8758;300.9655;0;-4.9E-7;0;Weather
1.00265056;0.0004484;15.0904;10.9978;237.3622;304.4512;0;-4.8E-7;0;Weather
1.00265181;0.0004464;15.0905;10.9882;236.8863;305.8952;0;-4.8E-7;0;Weather
1.0026533;0.0004445;15.0906;10.9772;236.332;356.7317;0;-4.9E-7;0;Weather
1.0026545;0.000445;15.0907;10.9692;236.1187;294.9665;0;-5.0E-7;0;Weather
1.00265567;0.0004442;15.0908;10.9594;235.592;298.2904;0;-5.2E-7;0;Weather
1.0026587;0.0004449;15.091;10.9384;234.7102;357.3379;0;-5.6E-7;0;Weather
1.00265893;0.0004451;15.091;10.9373;234.7151;36.2568;0;-5.7E-7;0;Weather
1.00265977;0.0004459;15.091;10.9298;234.413;316.7253;0;-5.9E-7;0;Weather
1.00266112;0.0004468;15.0911;10.9202;234.0995;310.8868;0;-6.1E-7;0;Weather
1.00266165;0.000447;15.0912;10.9156;234.0372;121.2276;0;-6.1E-7;0;Weather
1.0026625;0.0004483;15.0912;10.9094;233.8283;352.6976;0;-6.3E-7;0;Weather
1.00266363;0.0004491;15.0913;10.9007;233.5341;317.0002;0;-6.4E-7;0;Weather
1.00266476;0.0004498;15.0914;10.8909;233.4018;319.9155;0;-6.5E-7;0;Weather
1.00266586;0.0004506;15.0914;10.8819;233.4772;296.7536;0;-6.5E-7;0;Weather
1.00266715;0.0004507;15.0915;10.8722;233.4532;299.5586;0;-6.5E-7;0;Weather
1.00266823;0.0004508;15.0916;10.8624;233.4292;302.3633;0;-6.4E-7;0;Weather
1.00266936;0.0004503;15.0916;10.8527;233.4192;305.1685;0;-6.3E-7;0;Weather
1.00266999;0.0004505;15.0917;10.8479;233.4498;122.6107;0;-6.3E-7;0;Weather
1.00267059;0.0004494;15.0917;10.843;233.4009;307.9729;0;-6.2E-7;0;Weather
1.00267206;0.0004481;15.0918;10.8316;233.289;12.9279;0;-6.0E-7;0;Weather
1.00267309;0.0004466;15.0918;10.8236;233.2567;313.6632;0;-5.8E-7;0;Weather
1.00267418;0.0004446;15.0919;10.8138;233.1272;316.5685;0;-5.6E-7;0;Weather
1.00267536;0.0004427;15.092;10.8041;232.7967;319.6922;0;-5.4E-7;0;Weather
1.00267655;0.000441;15.092;10.7951;232.7184;296.6902;0;-5.2E-7;0;Weather
1.00267739;0.0004403;15.0921;10.7903;232.576;118.2317;0;-5.1E-7;0;Weather
1.00267867;0.0004381;15.0921;10.7804;232.2928;128.0914;0;-4.9E-7;0;Weather
1.00267925;0.0004369;15.0921;10.7757;232.2489;302.7394;0;-4.9E-7;0;Weather
1.00268064;0.000435;15.0922;10.766;231.8869;305.8802;0;-4.7E-7;0;Weather
1.00268205;0.0004336;15.0922;10.7563;231.4263;309.131;0;-4.5E-7;0;Weather
1.00268279;0.0004328;15.0923;10.7514;231.1973;130.7503;0;-4.5E-7;0;Weather
1.00268424;0.0004315;15.0923;10.742;230.7532;122.1339;0;-4.4E-7;0;Weather
1.00268552;0.0004316;15.0924;10.7321;229.9984;132.8344;0;-4.4E-7;0;Weather
1.00268627;0.0004315;15.0924;10.7271;229.7629;319.1049;0;-4.4E-7;0;Weather
1.00268785;0.000431;15.0924;10.7167;229.2982;345.8765;0;-4.4E-7;0;Weather
1.00268844;0.0004311;15.0925;10.7125;229.0576;144.0078;0;-4.5E-7;0;Weather
1.00268925;0.0004317;15.0925;10.7072;228.7903;340.6316;0;-4.5E-7;0;Weather
1.00269051;0.0004326;15.0925;10.6985;228.3385;303.0285;0;-4.7E-7;0;Weather
1.002692;0.0004349;15.0926;10.6887;227.7167;306.4616;0;-4.9E-7;0;Weather
1.00269334;0.0004367;15.0926;10.6788;227.2815;309.6762;0;-5.1E-7;0;Weather
1.00269395;0.000437;15.0927;10.6739;227.1167;131.2215;0;-5.2E-7;0;Weather
1.00269619;0.0004413;15.0928;10.6591;226.5096;316.012;0;-5.6E-7;0;Weather
1.00269758;0.0004437;15.0928;10.6493;226.2857;319.0245;0;-5.8E-7;0;Weather
1.00269835;0.0004441;15.0929;10.6443;226.2541;140.4736;0;-5.9E-7;0;Weather
1.0027007;0.0004487;15.093;10.6247;226.0229;146.2618;0;-6.2E-7;0;Weather
1.00270159;0.0004505;15.093;10.6187;225.8911;8.0442;0;-6.3E-7;0;Weather
1.00270297;0.000452;15.093;10.609;225.8325;8.5887;0;-6.3E-7;0;Weather
1.00270391;0.0004528;15.093;10.6009;225.7613;307.6552;0;-6.2E-7;0;Weather
1.00270504;0.0004535;15.0931;10.5911;225.7305;310.4764;0;-6.2E-7;0;Weather
1.00270623;0.0004537;15.0931;10.5814;225.7305;313.2851;0;-6.1E-7;0;Weather
1.00270652;0.000454;15.0931;10.5798;225.6902;11.6906;0;-6.1E-7;0;Weather
1.00270771;0.000454;15.0931;10.5704;225.6308;0.7052;0;-5.9E-7;0;Weather
1.0027082;0.0004543;15.0931;10.5667;225.6668;137.5448;0;-5.9E-7;0;Weather
1.00270932;0.000454;15.0932;10.557;225.5354;139.3432;0;-5.7E-7;0;Weather
1.00271016;0.0004531;15.0932;10.551;225.4154;1.1419;0;-5.6E-7;0;Weather
1.0027113;0.0004527;15.0932;10.5423;225.3018;324.8817;0;-5.4E-7;0;Weather
1.002712;0.0004529;15.0933;10.5374;225.2002;146.3826;0;-5.3E-7;0;Weather
1.00271268;0.0004522;15.0933;10.5325;225.0852;327.8802;0;-5.2E-7;0;Weather
1.00271388;0.0004517;15.0933;10.5234;224.8632;305.0462;0;-5.1E-7;0;Weather
1.00271527;0.0004508;15.0934;10.5136;224.6163;308.1041;0;-4.8E-7;0;Weather
1.00271675;0.0004504;15.0934;10.5038;224.2798;311.2196;0;-4.7E-7;0;Weather
1.00271816;0.0004502;15.0935;10.4941;223.9015;314.4046;0;-4.5E-7;0;Weather
1.0027195;0.0004504;15.0935;10.4843;223.4731;317.6359;0;-4.5E-7;0;Weather
1.00272101;0.0004508;15.0936;10.4745;223.0456;320.8441;0;-4.4E-7;0;Weather
1.00272178;0.0004512;15.0936;10.4696;222.8073;142.4742;0;-4.4E-7;0;Weather
1.00272387;0.0004537;15.0937;10.4552;222.077;313.301;0;-4.4E-7;0;Weather
1.00272464;0.000454;15.0937;10.4499;221.8738;148.988;0;-4.4E-7;0;Weather
1.00272682;0.0004569;15.0937;10.4354;221.3417;323.9934;0;-4.6E-7;0;Weather
1.00272826;0.0004593;15.0938;10.4259;220.9888;311.0331;0;-4.7E-7;0;Weather
1.00272966;0.000462;15.0938;10.416;220.6828;314.1451;0;-5.0E-7;0;Weather
1.00273115;0.0004654;15.0939;10.4061;220.3963;317.2136;0;-5.2E-7;0;Weather
1.00273252;0.00047;15.094;10.3961;220.0894;320.3378;0;-5.5E-7;0;Weather
1.00273317;0.0004714;15.094;10.3911;220.0244;145.5651;0;-5.7E-7;0;Weather
1.00273454;0.0004751;15.094;10.3813;219.9156;144.6965;0;-5.9E-7;0;Weather
1.0027353;0.0004783;15.0941;10.3763;219.7496;326.2833;0;-6.0E-7;0;Weather
1.00273595;0.0004783;15.0942;10.3715;219.8936;145.1304;0;-6.1E-7;0;Weather
1.0027372;0.0004812;15.0942;10.3616;219.9054;150.3267;0;-6.2E-7;0;Weather
